NORAD_CAT_ID,OBJECT_NAME,OBJECT_TYPE,EPOCH,MEAN_MOTION,ECCENTRICITY,INCLINATION,RA_OF_ASC_NODE,ARG_OF_PERICENTER,MEAN_ANOMALY,BSTAR,MEAN_MOTION_DOT,MEAN_MOTION_DDOT,TLE_LINE0,TLE_LINE1,TLE_LINE2,SEMIMAJOR_AXIS,PERIOD,APOGEE,PERIGEE,DECAYED
53916.0,STARLINK-5051,PAYLOAD,2023-09-19 15:36:37,15.08856878,0.0001499,53.2187,23.1852,90.8604,269.256,0.00035949,5.441e-05,0.0,0 STARLINK-5051,1 53916U 22119AG  23262.65043688  .00005441  00000-0  35949-3 0  9991,2 53916  53.2187  23.1852 0001499  90.8604 269.2560 15.08856878 55515,6917.829,95.436,540.731,538.657,0.0
53916.0,STARLINK-5051,PAYLOAD,2023-09-20 13:52:02,15.08823981,0.0001308,53.2188,19.0212,117.9675,242.1449,-7.9089e-05,-1.546e-05,0.0,0 STARLINK-5051,1 53916U 22119AG  23263.57781156 -.00001546  00000-0 -79089-4 0  9990,2 53916  53.2188  19.0212 0001308 117.9675 242.1449 15.08823981 56086,6917.929,95.439,540.699,538.889,0.0
53916.0,STARLINK-5051,PAYLOAD,2023-09-20 15:27:26,15.08814799,0.0001635,53.2189,18.7243,54.6849,305.4296,-0.00019705,-3.421e-05,0.0,0 STARLINK-5051,1 53916U 22119AG  23263.64405756 -.00003421  00000-0 -19705-3 0  9999,2 53916  53.2189  18.7243 0001635  54.6849 305.4296 15.08814799 55663,6917.957,95.439,540.954,538.691,0.0
53916.0,STARLINK-5051,PAYLOAD,2023-09-21 12:07:27,15.08837358,0.0001323,53.2182,14.8616,57.2479,302.8641,0.00067679,0.00010499,0.0,0 STARLINK-5051,1 53916U 22119AG  23264.50518249  .00010499  00000-0  67679-3 0  9991,2 53916  53.2182  14.8616 0001323  57.2479 302.8641 15.08837358 56223,6917.888,95.438,540.669,538.838,0.0
53916.0,STARLINK-5051,PAYLOAD,2023-09-21 16:53:37,15.08860242,0.0001622,53.2181,13.9672,54.0058,306.1084,0.0014737,0.00023257,0.0,0 STARLINK-5051,1 53916U 22119AG  23264.70390047  .00023257  00000-0  14737-2 0  9999,2 53916  53.2181  13.9672 0001622  54.0058 306.1084 15.08860242 55825,6917.819,95.436,540.806,538.561,0.0
53916.0,STARLINK-5051,PAYLOAD,2023-09-22 00:50:32,15.08854175,0.0001964,53.218,12.4809,65.5214,294.5982,0.000525,8.08e-05,0.0,0 STARLINK-5051,1 53916U 22119AG  23265.03509974  .00008080  00000-0  52500-3 0  9995,2 53916  53.2180  12.4809 0001964  65.5214 294.5982 15.08854175 55870,6917.837,95.437,541.061,538.343,0.0
53916.0,STARLINK-5051,PAYLOAD,2023-09-22 13:33:37,15.0885722,0.000134,53.2185,10.0981,88.4847,271.6299,0.00060153,9.303e-05,0.0,0 STARLINK-5051,1 53916U 22119AG  23265.56501254  .00009303  00000-0  60153-3 0  9998,2 53916  53.2185  10.0981 0001340  88.4847 271.6299 15.08857220 56382,6917.828,95.436,540.62,538.766,0.0
53916.0,STARLINK-5051,PAYLOAD,2023-09-22 15:09:00,15.08858232,0.0001347,53.2185,9.8005,89.7515,270.3631,0.00061275,9.482e-05,0.0,0 STARLINK-5051,1 53916U 22119AG  23265.63125164  .00009482  00000-0  61275-3 0  9992,2 53916  53.2185   9.8005 0001347  89.7515 270.3631 15.08858232 56399,6917.825,95.436,540.621,538.758,0.0
53916.0,STARLINK-5051,PAYLOAD,2023-09-23 00:41:18,15.08857371,0.0001315,53.2184,8.0184,82.3786,277.7356,0.0002111,3.075e-05,0.0,0 STARLINK-5051,1 53916U 22119AG  23266.02868914  .00003075  00000-0  21110-3 0  9999,2 53916  53.2184   8.0184 0001315  82.3786 277.7356 15.08857371 56029,6917.827,95.436,540.602,538.783,0.0
53916.0,STARLINK-5051,PAYLOAD,2023-09-23 13:24:23,15.08852834,0.000145,53.2192,5.6405,95.6209,264.4949,8.5154e-05,1.068e-05,0.0,0 STARLINK-5051,1 53916U 22119AG  23266.55860825  .00001068  00000-0  85154-4 0  9999,2 53916  53.2192   5.6405 0001450  95.6209 264.4949 15.08852834 56530,6917.841,95.437,540.709,538.703,0.0
53916.0,STARLINK-5051,PAYLOAD,2023-09-24 10:04:24,15.08841861,0.0001449,53.2187,1.7742,101.7715,258.3439,8.6164e-06,-1.51e-06,0.0,0 STARLINK-5051,1 53916U 22119AG  23267.41973015 -.00000151  00000-0  86164-5 0  9997,2 53916  53.2187   1.7742 0001449 101.7715 258.3439 15.08841861 56235,6917.875,95.437,540.742,538.737,0.0
53916.0,STARLINK-5051,PAYLOAD,2023-09-24 13:15:10,15.0884759,0.0001432,53.2188,1.1807,92.5261,267.5895,-1.0377e-05,-4.53e-06,0.0,0 STARLINK-5051,1 53916U 22119AG  23267.55220848 -.00000453  00000-0 -10377-4 0  9999,2 53916  53.2188   1.1807 0001432  92.5261 267.5895 15.08847590 56689,6917.857,95.437,540.713,538.732,0.0
53916.0,STARLINK-5051,PAYLOAD,2023-09-24 14:50:33,15.08848699,0.0001457,53.219,0.8826,97.926,262.1898,1.3128e-05,-7.9e-07,0.0,0 STARLINK-5051,1 53916U 22119AG  23267.61844737 -.00000079  00000-0  13128-4 0  9995,2 53916  53.2190   0.8826 0001457  97.9260 262.1898 15.08848699 56690,6917.854,95.437,540.727,538.711,0.0
53916.0,STARLINK-5051,PAYLOAD,2023-09-25 13:05:57,15.08853521,0.0001453,53.219,356.7228,96.4325,263.6833,0.00034215,5.164e-05,0.0,0 STARLINK-5051,1 53916U 22119AG  23268.54580692  .00005164  00000-0  34215-3 0  9993,2 53916  53.2190 356.7228 0001453  96.4325 263.6833 15.08853521 56832,6917.839,95.437,540.709,538.699,0.0
53916.0,STARLINK-5051,PAYLOAD,2023-09-25 14:41:20,15.08859126,0.0001399,53.2188,356.424,92.657,267.4582,0.00045309,6.934e-05,0.0,0 STARLINK-5051,1 53916U 22119AG  23268.61204465  .00006934  00000-0  45309-3 0  9994,2 53916  53.2188 356.4240 0001399  92.6570 267.4582 15.08859126 56413,6917.822,95.436,540.655,538.719,0.0
53916.0,STARLINK-5051,PAYLOAD,2023-09-26 09:45:59,15.08829183,0.0001395,53.219,352.854,99.0535,261.0615,-0.00010682,-1.987e-05,0.0,0 STARLINK-5051,1 53916U 22119AG  23269.40693782 -.00001987  00000-0 -10682-3 0  9997,2 53916  53.2190 352.8540 0001395  99.0535 261.0615 15.08829183 56537,6917.913,95.438,540.744,538.813,0.0
53916.0,STARLINK-5051,PAYLOAD,2023-09-26 11:21:22,15.08832147,0.0001683,53.2194,352.5552,110.0784,250.039,-2.8079e-05,-7.35e-06,0.0,0 STARLINK-5051,1 53916U 22119AG  23269.47317761 -.00000735  00000-0 -28079-4 0  9994,2 53916  53.2194 352.5552 0001683 110.0784 250.0390 15.08832147 56971,6917.904,95.438,540.934,538.605,0.0
53916.0,STARLINK-5051,PAYLOAD,2023-09-26 17:42:55,15.08838384,0.0001495,53.2188,351.3657,97.1491,262.9671,0.00011498,1.542e-05,0.0,0 STARLINK-5051,1 53916U 22119AG  23269.73813725  .00001542  00000-0  11498-3 0  9995,2 53916  53.2188 351.3657 0001495  97.1491 262.9671 15.08838384 57017,6917.885,95.438,540.785,538.716,0.0
53916.0,STARLINK-5051,PAYLOAD,2023-09-27 11:12:09,15.0884304,0.0001669,53.2179,348.1002,70.1268,289.9904,0.00032178,4.837e-05,0.0,0 STARLINK-5051,1 53916U 22119AG  23270.46677954  .00004837  00000-0  32178-3 0  9997,2 53916  53.2179 348.1002 0001669  70.1268 289.9904 15.08843040 57126,6917.871,95.437,540.891,538.582,0.0
53916.0,STARLINK-5051,PAYLOAD,2023-09-28 12:38:20,15.08833597,0.0001938,53.2188,343.3439,57.2741,302.8438,0.00020552,2.984e-05,0.0,0 STARLINK-5051,1 53916U 22119AG  23271.52662824  .00002984  00000-0  20552-3 0  9999,2 53916  53.2188 343.3439 0001938  57.2741 302.8438 15.08833597 56850,6917.9,95.438,541.106,538.424,0.0
53916.0,STARLINK-5051,PAYLOAD,2023-09-29 12:29:07,15.08850081,0.000173,53.2188,338.8806,72.5444,287.5737,8.2119e-05,1.019e-05,0.0,0 STARLINK-5051,1 53916U 22119AG  23272.52022016  .00001019  00000-0  82119-4 0  9999,2 53916  53.2188 338.8806 0001730  72.5444 287.5737 15.08850081 57430,6917.85,95.437,540.911,538.518,0.0
53916.0,STARLINK-5051,PAYLOAD,2023-09-29 23:36:48,15.0884804,0.000153,53.2171,336.7989,83.1231,276.9935,0.00030318,4.541e-05,0.0,0 STARLINK-5051,1 53916U 22119AG  23272.98389988  .00004541  00000-0  30318-3 0  9999,2 53916  53.2171 336.7989 0001530  83.1231 276.9935 15.08848040 57503,6917.856,95.437,540.779,538.662,0.0
53916.0,STARLINK-5051,PAYLOAD,2023-09-30 13:55:16,15.08863056,0.0001532,53.2164,334.1205,84.4015,275.7152,0.00045369,6.944e-05,0.0,0 STARLINK-5051,1 53916U 22119AG  23273.58005202  .00006944  00000-0  45369-3 0  9991,2 53916  53.2164 334.1205 0001532  84.4015 275.7152 15.08863056 57168,6917.81,95.436,540.735,538.615,0.0
53916.0,STARLINK-5051,PAYLOAD,2023-09-30 23:27:35,15.08848014,0.00015,53.2168,332.3389,79.3376,280.7785,0.00013875,1.921e-05,0.0,0 STARLINK-5051,1 53916U 22119AG  23273.97749577  .00001921  00000-0  13875-3 0  9991,2 53916  53.2168 332.3389 0001500  79.3376 280.7785 15.08848014 57225,6917.856,95.437,540.759,538.683,0.0
53916.0,STARLINK-5051,PAYLOAD,2023-10-01 10:35:17,15.08847778,0.0001508,53.2165,330.2558,95.1305,264.9859,3.2436e-05,2.28e-06,0.0,0 STARLINK-5051,1 53916U 22119AG  23274.44117269  .00000228  00000-0  32436-4 0  9995,2 53916  53.2165 330.2558 0001508  95.1305 264.9859 15.08847778 57720,6917.857,95.437,540.765,538.678,0.0
53916.0,STARLINK-5051,PAYLOAD,2023-10-02 10:26:05,15.08832094,0.0001547,53.216,325.7956,80.2571,279.8596,-5.8004e-05,-1.211e-05,0.0,0 STARLINK-5051,1 53916U 22119AG  23275.43478346 -.00001211  00000-0 -58004-4 0  9995,2 53916  53.2160 325.7956 0001547  80.2571 279.8596 15.08832094 57446,6917.905,95.438,540.84,538.699,0.0
53916.0,STARLINK-5051,PAYLOAD,2023-10-02 19:58:24,15.08834483,0.0001611,53.2167,324.0117,82.3572,277.7603,0.00025242,3.731e-05,0.0,0 STARLINK-5051,1 53916U 22119AG  23275.83222621  .00003731  00000-0  25242-3 0  9996,2 53916  53.2167 324.0117 0001611  82.3572 277.7603 15.08834483 57934,6917.897,95.438,540.877,538.648,0.0
53916.0,STARLINK-5051,PAYLOAD,2023-10-03 10:16:52,15.0885764,0.0001611,53.2162,321.3354,77.3149,282.8024,0.00086368,0.00013491,0.0,0 STARLINK-5051,1 53916U 22119AG  23276.42838261  .00013491  00000-0  86368-3 0  9995,2 53916  53.2162 321.3354 0001611  77.3149 282.8024 15.08857640 57592,6917.826,95.436,540.806,538.577,0.0
53916.0,STARLINK-5051,PAYLOAD,2023-10-03 11:52:15,15.08862224,0.0001621,53.2161,321.0379,77.0,283.1173,0.0010099,0.00015831,0.0,0 STARLINK-5051,1 53916U 22119AG  23276.49462175  .00015831  00000-0  10099-2 0  9996,2 53916  53.2161 321.0379 0001621  77.0000 283.1173 15.08862224 58032,6917.812,95.436,540.799,538.556,0.0
53916.0,STARLINK-5051,PAYLOAD,2023-10-04 10:07:40,15.08832474,0.000212,53.2165,316.8749,70.5241,289.598,8.6768e-05,1.093e-05,0.0,0 STARLINK-5051,1 53916U 22119AG  23277.42199156  .00001093  00000-0  86768-4 0  9999,2 53916  53.2165 316.8749 0002120  70.5241 289.5980 15.08832474 57746,6917.903,95.438,541.235,538.302,0.0
